ZORKY-2M 7              
1 67268U 25313W   26012.81831913  .00008309  00000+0  38619-3 0  9997
2 67268  97.4123  90.0146 0015451 184.4064 175.7038 15.20128683  2324
2025-313X               
1 67269U 25313X   26012.81755559  .00012473  00000+0  57498-3 0  9992
2 67269  97.4150  90.0304 0015296 182.9903 177.1243 15.20298179  2325
SITRO-TD-3              
1 67270U 25313Y   26012.81844204  .00009797  00000+0  45448-3 0  9997
2 67270  97.4123  90.0248 0015403 184.6974 175.4119 15.20143309  2328
2025-313Z               
1 67271U 25313Z   26012.81895056  .00005015  00000+0  23530-3 0  9996
2 67271  97.4118  90.0149 0015436 180.4675 179.6549 15.19999768  2320
2025-313AA              
1 67272U 25313AA  26012.81713858  .00010559  00000+0  48706-3 0  9997
2 67272  97.4123  90.0156 0015144 185.0052 175.1034 15.20323309  2325
2025-313AB              
1 67273U 25313AB  26012.81880067  .00003610  00000+0  17042-3 0  9994
2 67273  97.4136  90.0176 0014326 189.0004 171.0976 15.19988183  2329
2025-313AC              
1 67274U 25313AC  26012.81791925  .00007017  00000+0  32657-3 0  9993
2 67274  97.4111  90.0227 0015107 184.0133 176.0983 15.20144594  2321
2025-313AD              
1 67275U 25313AD  26012.81738618  .00007868  00000+0  36523-3 0  9994
2 67275  97.4086  90.0188 0014314 186.8784 173.2257 15.20203802  2321
2025-313AE              
1 67276U 25313AE  26012.81735075  .00007168  00000+0  33306-3 0  9998
2 67276  97.4091  90.0192 0014261 186.9252 173.1788 15.20203823  2326
2025-313AF              
1 67277U 25313AF  26012.81751971  .00006560  00000+0  30541-3 0  9995
2 67277  97.4092  90.0196 0014249 186.7660 173.3385 15.20171565  2321
2025-313AG              
1 67278U 25313AG  26012.68573433  .00007274  00000+0  33808-3 0  9998
2 67278  97.4095  89.8911 0014192 187.1573 172.9462 15.20186903  2313
GALAPAGOS-UTE-SWSU      
1 67279U 25313AH  26012.81688530  .00007663  00000+0  35514-3 0  9997
2 67279  97.4107  90.0231 0014787 183.6107 176.5024 15.20260628  2323
