CCSDS_OMM_VERS = 2.0
CREATION_DATE  = 
ORIGINATOR     = 

OBJECT_NAME    = ZORKY-2M 7
OBJECT_ID      = 2025-313W
CENTER_NAME    = EARTH
REF_FRAME      = TEME
TIME_SYSTEM    = UTC
MEAN_ELEMENT_THEORY = SGP/SGP4

EPOCH          = 2026-01-12T19:38:22.772832
MEAN_MOTION    = 15.20128683
ECCENTRICITY   = .0015451
INCLINATION    = 97.4123
RA_OF_ASC_NODE = 90.0146
ARG_OF_PERICENTER = 184.4064
MEAN_ANOMALY   = 175.7038

EPHEMERIS_TYPE = 0
CLASSIFICATION_TYPE = U
NORAD_CAT_ID   = 67268
ELEMENT_SET_NO = 999
REV_AT_EPOCH   = 232
BSTAR          = .38619E-3
MEAN_MOTION_DOT = .8309E-4
MEAN_MOTION_DDOT = 0

CCSDS_OMM_VERS = 2.0
CREATION_DATE  = 
ORIGINATOR     = 

OBJECT_NAME    = 2025-313X
OBJECT_ID      = 2025-313X
CENTER_NAME    = EARTH
REF_FRAME      = TEME
TIME_SYSTEM    = UTC
MEAN_ELEMENT_THEORY = SGP/SGP4

EPOCH          = 2026-01-12T19:37:16.802976
MEAN_MOTION    = 15.20298179
ECCENTRICITY   = .0015296
INCLINATION    = 97.4150
RA_OF_ASC_NODE = 90.0304
ARG_OF_PERICENTER = 182.9903
MEAN_ANOMALY   = 177.1243

EPHEMERIS_TYPE = 0
CLASSIFICATION_TYPE = U
NORAD_CAT_ID   = 67269
ELEMENT_SET_NO = 999
REV_AT_EPOCH   = 232
BSTAR          = .57498E-3
MEAN_MOTION_DOT = .12473E-3
MEAN_MOTION_DDOT = 0

CCSDS_OMM_VERS = 2.0
CREATION_DATE  = 
ORIGINATOR     = 

OBJECT_NAME    = SITRO-TD-3
OBJECT_ID      = 2025-313Y
CENTER_NAME    = EARTH
REF_FRAME      = TEME
TIME_SYSTEM    = UTC
MEAN_ELEMENT_THEORY = SGP/SGP4

EPOCH          = 2026-01-12T19:38:33.392256
MEAN_MOTION    = 15.20143309
ECCENTRICITY   = .0015403
INCLINATION    = 97.4123
RA_OF_ASC_NODE = 90.0248
ARG_OF_PERICENTER = 184.6974
MEAN_ANOMALY   = 175.4119

EPHEMERIS_TYPE = 0
CLASSIFICATION_TYPE = U
NORAD_CAT_ID   = 67270
ELEMENT_SET_NO = 999
REV_AT_EPOCH   = 232
BSTAR          = .45448E-3
MEAN_MOTION_DOT = .9797E-4
MEAN_MOTION_DDOT = 0

CCSDS_OMM_VERS = 2.0
CREATION_DATE  = 
ORIGINATOR     = 

OBJECT_NAME    = 2025-313Z
OBJECT_ID      = 2025-313Z
CENTER_NAME    = EARTH
REF_FRAME      = TEME
TIME_SYSTEM    = UTC
MEAN_ELEMENT_THEORY = SGP/SGP4

EPOCH          = 2026-01-12T19:39:17.328384
MEAN_MOTION    = 15.19999768
ECCENTRICITY   = .0015436
INCLINATION    = 97.4118
RA_OF_ASC_NODE = 90.0149
ARG_OF_PERICENTER = 180.4675
MEAN_ANOMALY   = 179.6549

EPHEMERIS_TYPE = 0
CLASSIFICATION_TYPE = U
NORAD_CAT_ID   = 67271
ELEMENT_SET_NO = 999
REV_AT_EPOCH   = 232
BSTAR          = .2353E-3
MEAN_MOTION_DOT = .5015E-4
MEAN_MOTION_DDOT = 0

CCSDS_OMM_VERS = 2.0
CREATION_DATE  = 
ORIGINATOR     = 

OBJECT_NAME    = 2025-313AA
OBJECT_ID      = 2025-313AA
CENTER_NAME    = EARTH
REF_FRAME      = TEME
TIME_SYSTEM    = UTC
MEAN_ELEMENT_THEORY = SGP/SGP4

EPOCH          = 2026-01-12T19:36:40.773312
MEAN_MOTION    = 15.20323309
ECCENTRICITY   = .0015144
INCLINATION    = 97.4123
RA_OF_ASC_NODE = 90.0156
ARG_OF_PERICENTER = 185.0052
MEAN_ANOMALY   = 175.1034

EPHEMERIS_TYPE = 0
CLASSIFICATION_TYPE = U
NORAD_CAT_ID   = 67272
ELEMENT_SET_NO = 999
REV_AT_EPOCH   = 232
BSTAR          = .48706E-3
MEAN_MOTION_DOT = .10559E-3
MEAN_MOTION_DDOT = 0

CCSDS_OMM_VERS = 2.0
CREATION_DATE  = 
ORIGINATOR     = 

OBJECT_NAME    = 2025-313AB
OBJECT_ID      = 2025-313AB
CENTER_NAME    = EARTH
REF_FRAME      = TEME
TIME_SYSTEM    = UTC
MEAN_ELEMENT_THEORY = SGP/SGP4

EPOCH          = 2026-01-12T19:39:04.377888
MEAN_MOTION    = 15.19988183
ECCENTRICITY   = .0014326
INCLINATION    = 97.4136
RA_OF_ASC_NODE = 90.0176
ARG_OF_PERICENTER = 189.0004
MEAN_ANOMALY   = 171.0976

EPHEMERIS_TYPE = 0
CLASSIFICATION_TYPE = U
NORAD_CAT_ID   = 67273
ELEMENT_SET_NO = 999
REV_AT_EPOCH   = 232
BSTAR          = .17042E-3
MEAN_MOTION_DOT = .361E-4
MEAN_MOTION_DDOT = 0

CCSDS_OMM_VERS = 2.0
CREATION_DATE  = 
ORIGINATOR     = 

OBJECT_NAME    = 2025-313AC
OBJECT_ID      = 2025-313AC
CENTER_NAME    = EARTH
REF_FRAME      = TEME
TIME_SYSTEM    = UTC
MEAN_ELEMENT_THEORY = SGP/SGP4

EPOCH          = 2026-01-12T19:37:48.223200
MEAN_MOTION    = 15.20144594
ECCENTRICITY   = .0015107
INCLINATION    = 97.4111
RA_OF_ASC_NODE = 90.0227
ARG_OF_PERICENTER = 184.0133
MEAN_ANOMALY   = 176.0983

EPHEMERIS_TYPE = 0
CLASSIFICATION_TYPE = U
NORAD_CAT_ID   = 67274
ELEMENT_SET_NO = 999
REV_AT_EPOCH   = 232
BSTAR          = .32657E-3
MEAN_MOTION_DOT = .7017E-4
MEAN_MOTION_DDOT = 0

CCSDS_OMM_VERS = 2.0
CREATION_DATE  = 
ORIGINATOR     = 

OBJECT_NAME    = 2025-313AD
OBJECT_ID      = 2025-313AD
CENTER_NAME    = EARTH
REF_FRAME      = TEME
TIME_SYSTEM    = UTC
MEAN_ELEMENT_THEORY = SGP/SGP4

EPOCH          = 2026-01-12T19:37:02.165952
MEAN_MOTION    = 15.20203802
ECCENTRICITY   = .0014314
INCLINATION    = 97.4086
RA_OF_ASC_NODE = 90.0188
ARG_OF_PERICENTER = 186.8784
MEAN_ANOMALY   = 173.2257

EPHEMERIS_TYPE = 0
CLASSIFICATION_TYPE = U
NORAD_CAT_ID   = 67275
ELEMENT_SET_NO = 999
REV_AT_EPOCH   = 232
BSTAR          = .36523E-3
MEAN_MOTION_DOT = .7868E-4
MEAN_MOTION_DDOT = 0

CCSDS_OMM_VERS = 2.0
CREATION_DATE  = 
ORIGINATOR     = 

OBJECT_NAME    = 2025-313AE
OBJECT_ID      = 2025-313AE
CENTER_NAME    = EARTH
REF_FRAME      = TEME
TIME_SYSTEM    = UTC
MEAN_ELEMENT_THEORY = SGP/SGP4

EPOCH          = 2026-01-12T19:36:59.104800
MEAN_MOTION    = 15.20203823
ECCENTRICITY   = .0014261
INCLINATION    = 97.4091
RA_OF_ASC_NODE = 90.0192
ARG_OF_PERICENTER = 186.9252
MEAN_ANOMALY   = 173.1788

EPHEMERIS_TYPE = 0
CLASSIFICATION_TYPE = U
NORAD_CAT_ID   = 67276
ELEMENT_SET_NO = 999
REV_AT_EPOCH   = 232
BSTAR          = .33306E-3
MEAN_MOTION_DOT = .7168E-4
MEAN_MOTION_DDOT = 0

CCSDS_OMM_VERS = 2.0
CREATION_DATE  = 
ORIGINATOR     = 

OBJECT_NAME    = 2025-313AF
OBJECT_ID      = 2025-313AF
CENTER_NAME    = EARTH
REF_FRAME      = TEME
TIME_SYSTEM    = UTC
MEAN_ELEMENT_THEORY = SGP/SGP4

EPOCH          = 2026-01-12T19:37:13.702944
MEAN_MOTION    = 15.20171565
ECCENTRICITY   = .0014249
INCLINATION    = 97.4092
RA_OF_ASC_NODE = 90.0196
ARG_OF_PERICENTER = 186.7660
MEAN_ANOMALY   = 173.3385

EPHEMERIS_TYPE = 0
CLASSIFICATION_TYPE = U
NORAD_CAT_ID   = 67277
ELEMENT_SET_NO = 999
REV_AT_EPOCH   = 232
BSTAR          = .30541E-3
MEAN_MOTION_DOT = .656E-4
MEAN_MOTION_DDOT = 0

CCSDS_OMM_VERS = 2.0
CREATION_DATE  = 
ORIGINATOR     = 

OBJECT_NAME    = 2025-313AG
OBJECT_ID      = 2025-313AG
CENTER_NAME    = EARTH
REF_FRAME      = TEME
TIME_SYSTEM    = UTC
MEAN_ELEMENT_THEORY = SGP/SGP4

EPOCH          = 2026-01-12T16:27:27.446112
MEAN_MOTION    = 15.20186903
ECCENTRICITY   = .0014192
INCLINATION    = 97.4095
RA_OF_ASC_NODE = 89.8911
ARG_OF_PERICENTER = 187.1573
MEAN_ANOMALY   = 172.9462

EPHEMERIS_TYPE = 0
CLASSIFICATION_TYPE = U
NORAD_CAT_ID   = 67278
ELEMENT_SET_NO = 999
REV_AT_EPOCH   = 231
BSTAR          = .33808E-3
MEAN_MOTION_DOT = .7274E-4
MEAN_MOTION_DDOT = 0

CCSDS_OMM_VERS = 2.0
CREATION_DATE  = 
ORIGINATOR     = 

OBJECT_NAME    = GALAPAGOS-UTE-SWSU
OBJECT_ID      = 2025-313AH
CENTER_NAME    = EARTH
REF_FRAME      = TEME
TIME_SYSTEM    = UTC
MEAN_ELEMENT_THEORY = SGP/SGP4

EPOCH          = 2026-01-12T19:36:18.889920
MEAN_MOTION    = 15.20260628
ECCENTRICITY   = .0014787
INCLINATION    = 97.4107
RA_OF_ASC_NODE = 90.0231
ARG_OF_PERICENTER = 183.6107
MEAN_ANOMALY   = 176.5024

EPHEMERIS_TYPE = 0
CLASSIFICATION_TYPE = U
NORAD_CAT_ID   = 67279
ELEMENT_SET_NO = 999
REV_AT_EPOCH   = 232
BSTAR          = .35514E-3
MEAN_MOTION_DOT = .7663E-4
MEAN_MOTION_DDOT = 0

